QIANFAN-49              
1 62250U 24232P   25362.83817730  .00000085  00000+0  11222-3 0  9996
2 62250  89.0011  39.6117 0015543 143.0478 217.1747 13.50981581 70016
QIANFAN-50              
1 62251U 24232Q   25362.78880404  .00000070  00000+0  90125-4 0  9993
2 62251  89.0017  39.6257 0017161 144.9751 215.2533 13.50978382 70039
QIANFAN-51              
1 62252U 24232R   25362.77235128  .00000085  00000+0  11301-3 0  9994
2 62252  89.0011  39.6203 0014554 147.4372 212.7680 13.50981108 70029
QIANFAN-52              
1 62253U 24232S   25362.80118240  .00000077  00000+0  10008-3 0  9998
2 62253  89.0007  39.4903 0016749 141.0233 219.2129 13.50979190 70112
QIANFAN-53              
1 62254U 24232T   25362.78056547  .00000077  00000+0  10007-3 0  9996
2 62254  89.0014  39.5982 0015608 141.7300 218.4962 13.50981649 70077
QIANFAN-54              
1 62255U 24232U   25362.82170693  .00000078  00000+0  10233-3 0  9993
2 62255  89.0005  39.2709 0002878 145.0666 215.0674 13.50981957101585
QIANFAN-55              
1 62785U 25016A   25362.77362543  .00000188  00000+0  27311-3 0  9990
2 62785  88.9784 101.5567 0015576 303.5599  56.4064 13.50980766 49358
QIANFAN-56              
1 62786U 25016B   25362.79011723  .00000174  00000+0  25043-3 0  9999
2 62786  88.9757 101.3872 0014252 306.3287  53.6548 13.50983606 49409
